STARLINK-4571           
1 53688U 22105AS  25210.63354417  .00000344  00000+0  31383-4 0  9995
2 53688  97.6567  91.6263 0001574 128.2557 231.8809 15.01262063160055
STARLINK-4570           
1 53690U 22105AU  25210.65576845 -.00000061  00000+0 -17975-6 0  9992
2 53690  97.6561  91.5949 0001696 110.9575 249.1831 15.01260900159777
STARLINK-4560           
1 53691U 22105AV  25211.16862148  .00001445  00000+0  11709-3 0  9995
2 53691  97.6567  92.1455 0002022 123.3045 236.8373 15.01249623160132
STARLINK-4572           
1 53692U 22105AW  25211.20345994  .00010428  00000+0  68975-3 0  9994
2 53692  97.6471  92.6726 0002921  60.8270 299.3250 15.07549417160178
STARLINK-4566           
1 53693U 22105AX  25211.22786432  .00000355  00000+0  32260-4 0  9990
2 53693  97.6580  92.2160 0002048  87.6699 272.4760 15.01257064160143
STARLINK-4725           
1 53700U 22107A   25211.15305778 -.00000182  00000+0  66387-5 0  9990
2 53700  53.2161 162.7519 0001351  88.1965 271.9182 15.08840518160516
STARLINK-4711           
1 53701U 22107B   25211.14937555 -.00000561  00000+0 -17177-4 0  9998
2 53701  53.2168 162.7308 0001431  90.3016 269.8140 15.08840433160517
STARLINK-4724           
1 53702U 22107C   25211.10847161  .00000187  00000+0  29857-4 0  9998
2 53702  53.2166 148.2276 0001301  90.8955 269.2186 15.08839670160719
STARLINK-4731           
1 53703U 22107D   25211.09787948 -.00000974  00000+0 -43086-4 0  9999
2 53703  53.2163 163.1181 0001125  78.7639 281.3480 15.08844477160506
STARLINK-4714           
1 53704U 22107E   25210.28465525 -.00000123  00000+0  10347-4 0  9993
2 53704  53.2164 167.2808 0001423  87.8051 272.3104 15.08841672160966
STARLINK-4717           
1 53705U 22107F   25211.14209928  .00003370  00000+0  22965-3 0  9997
2 53705  53.2162 163.3942 0001429  75.2194 284.8957 15.08850813160507
STARLINK-4716           
1 53706U 22107G   25210.59742971  .00001224  00000+0  95007-4 0  9990
2 53706  53.2165 165.6828 0001453  79.2091 280.9064 15.08826869161170
STARLINK-4667           
1 53707U 22107H   25211.11952924 -.00000096  00000+0  12080-4 0  9998
2 53707  53.2173 148.2907 0001681  82.6307 277.4876 15.08832485160718
STARLINK-4694           
1 53708U 22107J   25211.10478944 -.00000097  00000+0  12015-4 0  9992
2 53708  53.2168 148.2094 0001474  87.5740 272.5421 15.08836110160716
STARLINK-4685           
1 53709U 22107K   25210.62820566 -.00000299  00000+0 -70273-6 0  9997
2 53709  53.2155 170.1774 0001330  85.3838 274.7306 15.08841543160809
STARLINK-4627           
1 53711U 22107M   25211.16918096  .00000049  00000+0  21152-4 0  9997
2 53711  53.2165 167.8572 0001261  82.0681 278.0454 15.08837514160449
STARLINK-4683           
1 53712U 22107N   25210.61346968  .00000620  00000+0  57044-4 0  9994
2 53712  53.2162 170.0954 0001489  87.5249 272.5913 15.08840894160364
