[{"OBJECT_NAME":"STARLINK-4571","OBJECT_ID":"2022-105AS","EPOCH":"2025-07-29T15:12:18.216288","MEAN_MOTION":15.01262063,"ECCENTRICITY":0.0001574,"INCLINATION":97.6567,"RA_OF_ASC_NODE":91.6263,"ARG_OF_PERICENTER":128.2557,"MEAN_ANOMALY":231.8809,"EPHEMERIS_TYPE":0,"CLASSIFICATION_TYPE":"U","NORAD_CAT_ID":53688,"ELEMENT_SET_NO":999,"REV_AT_EPOCH":16005,"BSTAR":3.1383e-5,"MEAN_MOTION_DOT":3.44e-6,"MEAN_MOTION_DDOT":0},{"OBJECT_NAME":"STARLINK-4570","OBJECT_ID":"2022-105AU","EPOCH":"2025-07-29T15:44:18.394080","MEAN_MOTION":15.012609,"ECCENTRICITY":0.0001696,"INCLINATION":97.6561,"RA_OF_ASC_NODE":91.5949,"ARG_OF_PERICENTER":110.9575,"MEAN_ANOMALY":249.1831,"EPHEMERIS_TYPE":0,"CLASSIFICATION_TYPE":"U","NORAD_CAT_ID":53690,"ELEMENT_SET_NO":999,"REV_AT_EPOCH":15977,"BSTAR":-1.7975e-7,"MEAN_MOTION_DOT":-6.1e-7,"MEAN_MOTION_DDOT":0},{"OBJECT_NAME":"STARLINK-4560","OBJECT_ID":"2022-105AV","EPOCH":"2025-07-30T04:02:48.895872","MEAN_MOTION":15.01249623,"ECCENTRICITY":0.0002022,"INCLINATION":97.6567,"RA_OF_ASC_NODE":92.1455,"ARG_OF_PERICENTER":123.3045,"MEAN_ANOMALY":236.8373,"EPHEMERIS_TYPE":0,"CLASSIFICATION_TYPE":"U","NORAD_CAT_ID":53691,"ELEMENT_SET_NO":999,"REV_AT_EPOCH":16013,"BSTAR":0.00011709,"MEAN_MOTION_DOT":1.445e-5,"MEAN_MOTION_DDOT":0},{"OBJECT_NAME":"STARLINK-4572","OBJECT_ID":"2022-105AW","EPOCH":"2025-07-30T04:52:58.938816","MEAN_MOTION":15.07549417,"ECCENTRICITY":0.0002921,"INCLINATION":97.6471,"RA_OF_ASC_NODE":92.6726,"ARG_OF_PERICENTER":60.827,"MEAN_ANOMALY":299.325,"EPHEMERIS_TYPE":0,"CLASSIFICATION_TYPE":"U","NORAD_CAT_ID":53692,"ELEMENT_SET_NO":999,"REV_AT_EPOCH":16017,"BSTAR":0.00068975,"MEAN_MOTION_DOT":0.00010428,"MEAN_MOTION_DDOT":0},{"OBJECT_NAME":"STARLINK-4566","OBJECT_ID":"2022-105AX","EPOCH":"2025-07-30T05:28:07.477248","MEAN_MOTION":15.01257064,"ECCENTRICITY":0.0002048,"INCLINATION":97.658,"RA_OF_ASC_NODE":92.216,"ARG_OF_PERICENTER":87.6699,"MEAN_ANOMALY":272.476,"EPHEMERIS_TYPE":0,"CLASSIFICATION_TYPE":"U","NORAD_CAT_ID":53693,"ELEMENT_SET_NO":999,"REV_AT_EPOCH":16014,"BSTAR":3.226e-5,"MEAN_MOTION_DOT":3.55e-6,"MEAN_MOTION_DDOT":0},{"OBJECT_NAME":"STARLINK-4725","OBJECT_ID":"2022-107A","EPOCH":"2025-07-30T03:40:24.192192","MEAN_MOTION":15.08840518,"ECCENTRICITY":0.0001351,"INCLINATION":53.2161,"RA_OF_ASC_NODE":162.7519,"ARG_OF_PERICENTER":88.1965,"MEAN_ANOMALY":271.9182,"EPHEMERIS_TYPE":0,"CLASSIFICATION_TYPE":"U","NORAD_CAT_ID":53700,"ELEMENT_SET_NO":999,"REV_AT_EPOCH":16051,"BSTAR":6.6387e-6,"MEAN_MOTION_DOT":-1.82e-6,"MEAN_MOTION_DDOT":0},{"OBJECT_NAME":"STARLINK-4711","OBJECT_ID":"2022-107B","EPOCH":"2025-07-30T03:35:06.047520","MEAN_MOTION":15.08840433,"ECCENTRICITY":0.0001431,"INCLINATION":53.2168,"RA_OF_ASC_NODE":162.7308,"ARG_OF_PERICENTER":90.3016,"MEAN_ANOMALY":269.814,"EPHEMERIS_TYPE":0,"CLASSIFICATION_TYPE":"U","NORAD_CAT_ID":53701,"ELEMENT_SET_NO":999,"REV_AT_EPOCH":16051,"BSTAR":-1.7177e-5,"MEAN_MOTION_DOT":-5.61e-6,"MEAN_MOTION_DDOT":0},{"OBJECT_NAME":"STARLINK-4724","OBJECT_ID":"2022-107C","EPOCH":"2025-07-30T02:36:11.947104","MEAN_MOTION":15.0883967,"ECCENTRICITY":0.0001301,"INCLINATION":53.2166,"RA_OF_ASC_NODE":148.2276,"ARG_OF_PERICENTER":90.8955,"MEAN_ANOMALY":269.2186,"EPHEMERIS_TYPE":0,"CLASSIFICATION_TYPE":"U","NORAD_CAT_ID":53702,"ELEMENT_SET_NO":999,"REV_AT_EPOCH":16071,"BSTAR":2.9857e-5,"MEAN_MOTION_DOT":1.87e-6,"MEAN_MOTION_DDOT":0},{"OBJECT_NAME":"STARLINK-4731","OBJECT_ID":"2022-107D","EPOCH":"2025-07-30T02:20:56.787072","MEAN_MOTION":15.08844477,"ECCENTRICITY":0.0001125,"INCLINATION":53.2163,"RA_OF_ASC_NODE":163.1181,"ARG_OF_PERICENTER":78.7639,"MEAN_ANOMALY":281.348,"EPHEMERIS_TYPE":0,"CLASSIFICATION_TYPE":"U","NORAD_CAT_ID":53703,"ELEMENT_SET_NO":999,"REV_AT_EPOCH":16050,"BSTAR":-4.3086e-5,"MEAN_MOTION_DOT":-9.74e-6,"MEAN_MOTION_DDOT":0},{"OBJECT_NAME":"STARLINK-4714","OBJECT_ID":"2022-107E","EPOCH":"2025-07-29T06:49:54.213600","MEAN_MOTION":15.08841672,"ECCENTRICITY":0.0001423,"INCLINATION":53.2164,"RA_OF_ASC_NODE":167.2808,"ARG_OF_PERICENTER":87.8051,"MEAN_ANOMALY":272.3104,"EPHEMERIS_TYPE":0,"CLASSIFICATION_TYPE":"U","NORAD_CAT_ID":53704,"ELEMENT_SET_NO":999,"REV_AT_EPOCH":16096,"BSTAR":1.0347e-5,"MEAN_MOTION_DOT":-1.23e-6,"MEAN_MOTION_DDOT":0},{"OBJECT_NAME":"STARLINK-4717","OBJECT_ID":"2022-107F","EPOCH":"2025-07-30T03:24:37.377792","MEAN_MOTION":15.08850813,"ECCENTRICITY":0.0001429,"INCLINATION":53.2162,"RA_OF_ASC_NODE":163.3942,"ARG_OF_PERICENTER":75.2194,"MEAN_ANOMALY":284.8957,"EPHEMERIS_TYPE":0,"CLASSIFICATION_TYPE":"U","NORAD_CAT_ID":53705,"ELEMENT_SET_NO":999,"REV_AT_EPOCH":16050,"BSTAR":0.00022965,"MEAN_MOTION_DOT":3.37e-5,"MEAN_MOTION_DDOT":0},{"OBJECT_NAME":"STARLINK-4716","OBJECT_ID":"2022-107G","EPOCH":"2025-07-29T14:20:17.926944","MEAN_MOTION":15.08826869,"ECCENTRICITY":0.0001453,"INCLINATION":53.2165,"RA_OF_ASC_NODE":165.6828,"ARG_OF_PERICENTER":79.2091,"MEAN_ANOMALY":280.9064,"EPHEMERIS_TYPE":0,"CLASSIFICATION_TYPE":"U","NORAD_CAT_ID":53706,"ELEMENT_SET_NO":999,"REV_AT_EPOCH":16117,"BSTAR":9.5007e-5,"MEAN_MOTION_DOT":1.224e-5,"MEAN_MOTION_DDOT":0},{"OBJECT_NAME":"STARLINK-4667","OBJECT_ID":"2022-107H","EPOCH":"2025-07-30T02:52:07.326336","MEAN_MOTION":15.08832485,"ECCENTRICITY":0.0001681,"INCLINATION":53.2173,"RA_OF_ASC_NODE":148.2907,"ARG_OF_PERICENTER":82.6307,"MEAN_ANOMALY":277.4876,"EPHEMERIS_TYPE":0,"CLASSIFICATION_TYPE":"U","NORAD_CAT_ID":53707,"ELEMENT_SET_NO":999,"REV_AT_EPOCH":16071,"BSTAR":1.208e-5,"MEAN_MOTION_DOT":-9.6e-7,"MEAN_MOTION_DDOT":0},{"OBJECT_NAME":"STARLINK-4694","OBJECT_ID":"2022-107J","EPOCH":"2025-07-30T02:30:53.807616","MEAN_MOTION":15.0883611,"ECCENTRICITY":0.0001474,"INCLINATION":53.2168,"RA_OF_ASC_NODE":148.2094,"ARG_OF_PERICENTER":87.574,"MEAN_ANOMALY":272.5421,"EPHEMERIS_TYPE":0,"CLASSIFICATION_TYPE":"U","NORAD_CAT_ID":53708,"ELEMENT_SET_NO":999,"REV_AT_EPOCH":16071,"BSTAR":1.2015e-5,"MEAN_MOTION_DOT":-9.7e-7,"MEAN_MOTION_DDOT":0},{"OBJECT_NAME":"STARLINK-4685","OBJECT_ID":"2022-107K","EPOCH":"2025-07-29T15:04:36.969024","MEAN_MOTION":15.08841543,"ECCENTRICITY":0.000133,"INCLINATION":53.2155,"RA_OF_ASC_NODE":170.1774,"ARG_OF_PERICENTER":85.3838,"MEAN_ANOMALY":274.7306,"EPHEMERIS_TYPE":0,"CLASSIFICATION_TYPE":"U","NORAD_CAT_ID":53709,"ELEMENT_SET_NO":999,"REV_AT_EPOCH":16080,"BSTAR":-7.0273e-7,"MEAN_MOTION_DOT":-2.99e-6,"MEAN_MOTION_DDOT":0},{"OBJECT_NAME":"STARLINK-4627","OBJECT_ID":"2022-107M","EPOCH":"2025-07-30T04:03:37.234944","MEAN_MOTION":15.08837514,"ECCENTRICITY":0.0001261,"INCLINATION":53.2165,"RA_OF_ASC_NODE":167.8572,"ARG_OF_PERICENTER":82.0681,"MEAN_ANOMALY":278.0454,"EPHEMERIS_TYPE":0,"CLASSIFICATION_TYPE":"U","NORAD_CAT_ID":53711,"ELEMENT_SET_NO":999,"REV_AT_EPOCH":16044,"BSTAR":2.1152e-5,"MEAN_MOTION_DOT":4.9e-7,"MEAN_MOTION_DDOT":0},{"OBJECT_NAME":"STARLINK-4683","OBJECT_ID":"2022-107N","EPOCH":"2025-07-29T14:43:23.780352","MEAN_MOTION":15.08840894,"ECCENTRICITY":0.0001489,"INCLINATION":53.2162,"RA_OF_ASC_NODE":170.0954,"ARG_OF_PERICENTER":87.5249,"MEAN_ANOMALY":272.5913,"EPHEMERIS_TYPE":0,"CLASSIFICATION_TYPE":"U","NORAD_CAT_ID":53712,"ELEMENT_SET_NO":999,"REV_AT_EPOCH":16036,"BSTAR":5.7044e-5,"MEAN_MOTION_DOT":6.2e-6,"MEAN_MOTION_DDOT":0}]
